start=new Date('2021-09-28T00:00:00.000Z').valueOf();
sats=[{"EPOCH":"2021-09-27T20:16:12.134496","SEMIMAJOR_AXIS":"6925.372","TLE_LINE2":"2 47773  53.0554 311.3377 0001062  80.1714 279.9395 15.06392190 32833","MEAN_ELEMENT_THEORY":"SGP4","BSTAR":"0.00010073000000","LAUNCH_DATE":"2021-03-04","ARG_OF_PERICENTER":"80.1714","REF_FRAME":"TEME","NORAD_CAT_ID":"47773","MEAN_MOTION":"15.06392190","MEAN_MOTION_DOT":"0.00001219","DECAY_DATE":null,"ECCENTRICITY":"0.00010620","TIME_SYSTEM":"UTC","EPHEMERIS_TYPE":"0","OBJECT_NAME":"STARLINK-2196","FILE":"3131463","CENTER_NAME":"EARTH","MEAN_ANOMALY":"279.9395","REV_AT_EPOCH":"3283","MEAN_MOTION_DDOT":"0.0000000000000","INCLINATION":"53.0554","RCS_SIZE":"LARGE","COUNTRY_CODE":"US","PERIOD":"95.593","OBJECT_ID":"2021-017BD","ELEMENT_SET_NO":"999","SITE":"AFETR","TLE_LINE1":"1 47773U 21017BD  21270.84458489  .00001219  00000-0  10073-3 0  9998","OBJECT_TYPE":"PAYLOAD","RA_OF_ASC_NODE":"311.3377","PERIAPSIS":"546.502","CLASSIFICATION_TYPE":"U","APOAPSIS":"547.973","GP_ID":"185668505"},{"REF_FRAME":"TEME","NORAD_CAT_ID":"47774","MEAN_MOTION":"15.06397952","MEAN_MOTION_DOT":"-0.00000036","DECAY_DATE":null,"TIME_SYSTEM":"UTC","ECCENTRICITY":"0.00012550","EPHEMERIS_TYPE":"0","OBJECT_NAME":"STARLINK-2197","EPOCH":"2021-09-27T20:10:53.133600","SEMIMAJOR_AXIS":"6925.355","TLE_LINE2":"2 47774  53.0556 311.3507 0001255  97.2386 262.8745 15.06397952 32841","MEAN_ELEMENT_THEORY":"SGP4","BSTAR":"0.00001644200000","LAUNCH_DATE":"2021-03-04","ARG_OF_PERICENTER":"97.2386","SITE":"AFETR","RA_OF_ASC_NODE":"311.3507","TLE_LINE1":"1 47774U 21017BE  21270.84089275 -.00000036  00000-0  16442-4 0  9996","OBJECT_TYPE":"PAYLOAD","PERIAPSIS":"546.351","CLASSIFICATION_TYPE":"U","APOAPSIS":"548.089","GP_ID":"185667257","FILE":"3131463","CENTER_NAME":"EARTH","REV_AT_EPOCH":"3284","MEAN_ANOMALY":"262.8745","MEAN_MOTION_DDOT":"0.0000000000000","INCLINATION":"53.0556","RCS_SIZE":"LARGE","COUNTRY_CODE":"US","PERIOD":"95.592","ELEMENT_SET_NO":"999","OBJECT_ID":"2021-017BE"},{"EPOCH":"2021-09-27T20:26:49.093440","SEMIMAJOR_AXIS":"6925.363","TLE_LINE2":"2 47775  53.0560 311.3189 0000814  95.3840 264.7242 15.06395163 32897","MEAN_ELEMENT_THEORY":"SGP4","BSTAR":"0.00010273000000","LAUNCH_DATE":"2021-03-04","ARG_OF_PERICENTER":"95.3840","NORAD_CAT_ID":"47775","MEAN_MOTION":"15.06395163","REF_FRAME":"TEME","MEAN_MOTION_DOT":"0.00001249","EPHEMERIS_TYPE":"0","DECAY_DATE":null,"ECCENTRICITY":"0.00008140","TIME_SYSTEM":"UTC","OBJECT_NAME":"STARLINK-2198","FILE":"3131463","CENTER_NAME":"EARTH","MEAN_ANOMALY":"264.7242","REV_AT_EPOCH":"3289","MEAN_MOTION_DDOT":"0.0000000000000","INCLINATION":"53.0560","RCS_SIZE":"LARGE","PERIOD":"95.592","COUNTRY_CODE":"US","ELEMENT_SET_NO":"999","OBJECT_ID":"2021-017BF","SITE":"AFETR","RA_OF_ASC_NODE":"311.3189","TLE_LINE1":"1 47775U 21017BF  21270.85195710  .00001249  00000-0  10273-3 0  9991","OBJECT_TYPE":"PAYLOAD","APOAPSIS":"547.792","PERIAPSIS":"546.665","CLASSIFICATION_TYPE":"U","GP_ID":"185668007"},{"OBJECT_ID":"2021-017BG","ELEMENT_SET_NO":"999","COUNTRY_CODE":"US","PERIOD":"95.593","RCS_SIZE":"LARGE","INCLINATION":"53.0561","MEAN_MOTION_DDOT":"0.0000000000000","REV_AT_EPOCH":"3299","MEAN_ANOMALY":"279.0546","CENTER_NAME":"EARTH","FILE":"3131463","GP_ID":"185668259","PERIAPSIS":"546.313","CLASSIFICATION_TYPE":"U","APOAPSIS":"548.176","TLE_LINE1":"1 47776U 21017BG  21270.81233669  .00001316  00000-0  10728-3 0  9994","OBJECT_TYPE":"PAYLOAD","RA_OF_ASC_NODE":"301.4877","SITE":"AFETR","ARG_OF_PERICENTER":"81.0595","LAUNCH_DATE":"2021-03-04","TLE_LINE2":"2 47776  53.0561 301.4877 0001345  81.0595 279.0546 15.06389949 32994","MEAN_ELEMENT_THEORY":"SGP4","BSTAR":"0.00010728000000","SEMIMAJOR_AXIS":"6925.379","EPOCH":"2021-09-27T19:29:45.890016","OBJECT_NAME":"STARLINK-2209","DECAY_DATE":null,"ECCENTRICITY":"0.00013450","TIME_SYSTEM":"UTC","EPHEMERIS_TYPE":"0","MEAN_MOTION_DOT":"0.00001316","REF_FRAME":"TEME","NORAD_CAT_ID":"47776","MEAN_MOTION":"15.06389949"},{"SITE":"AFETR","TLE_LINE1":"1 47777U 21017BH  21270.81600912 -.00000670  00000-0 -26081-4 0  9998","OBJECT_TYPE":"PAYLOAD","RA_OF_ASC_NODE":"301.4755","CLASSIFICATION_TYPE":"U","PERIAPSIS":"546.509","APOAPSIS":"547.944","GP_ID":"185669005","FILE":"3131463","CENTER_NAME":"EARTH","MEAN_ANOMALY":"266.2149","REV_AT_EPOCH":"3299","MEAN_MOTION_DDOT":"0.0000000000000","INCLINATION":"53.0562","RCS_SIZE":"LARGE","PERIOD":"95.592","COUNTRY_CODE":"US","OBJECT_ID":"2021-017BH","ELEMENT_SET_NO":"999","REF_FRAME":"TEME","MEAN_MOTION":"15.06395823","NORAD_CAT_ID":"47777","MEAN_MOTION_DOT":"-0.00000670","ECCENTRICITY":"0.00010360","DECAY_DATE":null,"TIME_SYSTEM":"UTC","EPHEMERIS_TYPE":"0","OBJECT_NAME":"STARLINK-2210","EPOCH":"2021-09-27T19:35:03.187968","SEMIMAJOR_AXIS":"6925.361","MEAN_ELEMENT_THEORY":"SGP4","TLE_LINE2":"2 47777  53.0562 301.4755 0001036  93.8959 266.2149 15.06395823 32998","BSTAR":"-0.00002608100000","LAUNCH_DATE":"2021-03-04","ARG_OF_PERICENTER":"93.8959"},{"NORAD_CAT_ID":"47778","MEAN_MOTION":"15.06394398","REF_FRAME":"TEME","OBJECT_NAME":"STARLINK-2211","EPHEMERIS_TYPE":"0","DECAY_DATE":null,"ECCENTRICITY":"0.00007940","TIME_SYSTEM":"UTC","MEAN_MOTION_DOT":"-0.00001918","TLE_LINE2":"2 47778  53.0568 301.7904 0000794  79.2646 280.8432 15.06394398 32987","MEAN_ELEMENT_THEORY":"SGP4","BSTAR":"-0.00010992000000","SEMIMAJOR_AXIS":"6925.366","EPOCH":"2021-09-27T18:47:17.803680","ARG_OF_PERICENTER":"79.2646","LAUNCH_DATE":"2021-03-04","APOAPSIS":"547.781","CLASSIFICATION_TYPE":"U","PERIAPSIS":"546.681","OBJECT_TYPE":"PAYLOAD","TLE_LINE1":"1 47778U 21017BJ  21270.78284495 -.00001918  00000-0 -10992-3 0  9998","RA_OF_ASC_NODE":"301.7904","SITE":"AFETR","GP_ID":"185667757","MEAN_MOTION_DDOT":"0.0000000000000","REV_AT_EPOCH":"3298","MEAN_ANOMALY":"280.8432","CENTER_NAME":"EARTH","FILE":"3131463","OBJECT_ID":"2021-017BJ","ELEMENT_SET_NO":"999","PERIOD":"95.592","COUNTRY_CODE":"US","RCS_SIZE":"LARGE","INCLINATION":"53.0568"},{"EPHEMERIS_TYPE":"0","ECCENTRICITY":"0.00013210","DECAY_DATE":null,"TIME_SYSTEM":"UTC","OBJECT_NAME":"STARLINK-2212","MEAN_MOTION_DOT":"0.00001001","NORAD_CAT_ID":"47779","MEAN_MOTION":"15.06395579","REF_FRAME":"TEME","LAUNCH_DATE":"2021-03-04","ARG_OF_PERICENTER":"68.7855","TLE_LINE2":"2 47779  53.0555 301.5458 0001321  68.7855 291.3275 15.06395579 32993","BSTAR":"0.00008606700000","MEAN_ELEMENT_THEORY":"SGP4","EPOCH":"2021-09-27T19:08:31.115040","SEMIMAJOR_AXIS":"6925.362","GP_ID":"185667508","APOAPSIS":"548.142","CLASSIFICATION_TYPE":"U","PERIAPSIS":"546.312","SITE":"AFETR","TLE_LINE1":"1 47779U 21017BK  21270.79758235  .00001001  00000-0  86067-4 0  9996","RA_OF_ASC_NODE":"301.5458","OBJECT_TYPE":"PAYLOAD","COUNTRY_CODE":"US","PERIOD":"95.592","OBJECT_ID":"2021-017BK","ELEMENT_SET_NO":"999","INCLINATION":"53.0555","RCS_SIZE":"LARGE","MEAN_ANOMALY":"291.3275","REV_AT_EPOCH":"3299","MEAN_MOTION_DDOT":"0.0000000000000","FILE":"3131463","CENTER_NAME":"EARTH"},{"LAUNCH_DATE":"2021-03-04","ARG_OF_PERICENTER":"79.7150","EPOCH":"2021-09-27T19:12:28.522368","SEMIMAJOR_AXIS":"6925.380","MEAN_ELEMENT_THEORY":"SGP4","TLE_LINE2":"2 47780  53.0558 301.5389 0000911  79.7150 280.3942 15.06389721 33021","BSTAR":"0.00008823600000","MEAN_MOTION_DOT":"0.00001033","EPHEMERIS_TYPE":"0","DECAY_DATE":null,"ECCENTRICITY":"0.00009110","TIME_SYSTEM":"UTC","OBJECT_NAME":"STARLINK-2213","NORAD_CAT_ID":"47780","MEAN_MOTION":"15.06389721","REF_FRAME":"TEME","INCLINATION":"53.0558","RCS_SIZE":"LARGE","COUNTRY_CODE":"US","PERIOD":"95.593","ELEMENT_SET_NO":"999","OBJECT_ID":"2021-017BL","FILE":"3131463","CENTER_NAME":"EARTH","REV_AT_EPOCH":"3302","MEAN_ANOMALY":"280.3942","MEAN_MOTION_DDOT":"0.0000000000000","GP_ID":"185668759","SITE":"AFETR","OBJECT_TYPE":"PAYLOAD","TLE_LINE1":"1 47780U 21017BL  21270.80033012  .00001033  00000-0  88236-4 0  9994","RA_OF_ASC_NODE":"301.5389","APOAPSIS":"547.876","PERIAPSIS":"546.614","CLASSIFICATION_TYPE":"U"},{"APOAPSIS":"547.828","PERIAPSIS":"546.623","CLASSIFICATION_TYPE":"U","SITE":"AFETR","TLE_LINE1":"1 47781U 21017BM  21270.57642189 -.00000752  00000-0 -31595-4 0  9995","RA_OF_ASC_NODE":"302.5455","OBJECT_TYPE":"PAYLOAD","GP_ID":"185668506","REV_AT_EPOCH":"3294","MEAN_ANOMALY":"285.7812","MEAN_MOTION_DDOT":"0.0000000000000","FILE":"3131463","CENTER_NAME":"EARTH","PERIOD":"95.592","COUNTRY_CODE":"US","ELEMENT_SET_NO":"999","OBJECT_ID":"2021-017BM","INCLINATION":"53.0557","RCS_SIZE":"LARGE","NORAD_CAT_ID":"47781","MEAN_MOTION":"15.06396031","REF_FRAME":"TEME","EPHEMERIS_TYPE":"0","ECCENTRICITY":"0.00008700","DECAY_DATE":null,"TIME_SYSTEM":"UTC","OBJECT_NAME":"STARLINK-2223","MEAN_MOTION_DOT":"-0.00000752","TLE_LINE2":"2 47781  53.0557 302.5455 0000870  74.3273 285.7812 15.06396031 32944","MEAN_ELEMENT_THEORY":"SGP4","BSTAR":"-0.00003159500000","EPOCH":"2021-09-27T13:50:02.851296","SEMIMAJOR_AXIS":"6925.361","LAUNCH_DATE":"2021-03-04","ARG_OF_PERICENTER":"74.3273"},{"REF_FRAME":"TEME","NORAD_CAT_ID":"47787","MEAN_MOTION":"15.06401203","OBJECT_NAME":"STARLINK-2257","ECCENTRICITY":"0.00010730","DECAY_DATE":null,"TIME_SYSTEM":"UTC","EPHEMERIS_TYPE":"0","MEAN_MOTION_DOT":"0.00000357","MEAN_ELEMENT_THEORY":"SGP4","TLE_LINE2":"2 47787  53.0574 342.1686 0001073  77.8158 282.2951 15.06401203 31810","BSTAR":"0.00004281800000","SEMIMAJOR_AXIS":"6925.345","EPOCH":"2021-09-27T15:52:07.749984","ARG_OF_PERICENTER":"77.8158","LAUNCH_DATE":"2021-03-11","PERIAPSIS":"546.467","CLASSIFICATION_TYPE":"U","APOAPSIS":"547.953","RA_OF_ASC_NODE":"342.1686","TLE_LINE1":"1 47787U 21018A   21270.66120081  .00000357  00000-0  42818-4 0  9993","OBJECT_TYPE":"PAYLOAD","SITE":"AFETR","GP_ID":"185667258","MEAN_MOTION_DDOT":"0.0000000000000","REV_AT_EPOCH":"3181","MEAN_ANOMALY":"282.2951","CENTER_NAME":"EARTH","FILE":"3131463","ELEMENT_SET_NO":"999","OBJECT_ID":"2021-018A","PERIOD":"95.592","COUNTRY_CODE":"US","RCS_SIZE":"LARGE","INCLINATION":"53.0574"}];
